STARLINK-36427          
1 67333U 26002AE  26016.25001157 -.01711939  81611-3 -47823-2 0  9997
2 67333  42.9961 267.5885 0001645 275.5930 250.2009 15.92854931  3045
STARLINK-35343          
1 67334U 26003A   26011.94089612 -.00002702  85427-5  00000+0 0  9995
2 67334  43.0100  74.1123 0008600 321.9700  11.3500 16.01646204    18
STARLINK-36486          
1 67335U 26003B   26011.94089612 -.00002702  85427-5  00000+0 0  9996
2 67335  43.0100  74.1123 0008600 321.9700  11.3500 16.01646204    19
STARLINK-36480          
1 67336U 26003C   26011.94089612 -.00002702  85427-5  00000+0 0  9997
2 67336  43.0100  74.1123 0008600 321.9700  11.3500 16.01646204    10
STARLINK-36410          
1 67337U 26003D   26011.94089612 -.00002702  85427-5  00000+0 0  9998
2 67337  43.0100  74.1123 0008600 321.9700  11.3500 16.01646204    11
STARLINK-36413          
1 67338U 26003E   26011.94089612 -.00002702  85427-5  00000+0 0  9999
2 67338  43.0100  74.1123 0008600 321.9700  11.3500 16.01646204    12
STARLINK-36451          
1 67339U 26003F   26011.94089612 -.00002702  85427-5  00000+0 0  9990
2 67339  43.0100  74.1123 0008600 321.9700  11.3500 16.01646204    13
STARLINK-36339          
1 67340U 26003G   26011.94089612 -.00002702  85427-5  00000+0 0  9992
2 67340  43.0100  74.1123 0008600 321.9700  11.3500 16.01646204    15
STARLINK-36453          
1 67341U 26003H   26011.94089612 -.00002702  85427-5  00000+0 0  9993
2 67341  43.0100  74.1123 0008600 321.9700  11.3500 16.01646204    16
STARLINK-36432          
1 67342U 26003J   26011.94089612 -.00002702  85427-5  00000+0 0  9994
2 67342  43.0100  74.1123 0008600 321.9700  11.3500 16.01646204    17
STARLINK-36458          
1 67343U 26003K   26011.94089612 -.00002702  85427-5  00000+0 0  9995
2 67343  43.0100  74.1123 0008600 321.9700  11.3500 16.01646204    18
STARLINK-36422          
1 67344U 26003L   26011.94089612 -.00002702  85427-5  00000+0 0  9996
2 67344  43.0100  74.1123 0008600 321.9700  11.3500 16.01646204    19
